ORBCOMM-X               
1 21576U 91050C   25328.72551029  .00000394  00000+0  12936-3 0  9996
2 21576  98.3250  31.9077 0004702  69.9781 290.1915 14.43413567805277
ORBCOMM FM01            
1 23545U 95017A   25328.59533789  .00007751  00000+0  75733-3 0  9997
2 23545  69.9634  33.4851 0002226 354.9547   5.1586 14.92721642636425
ORBCOMM FM02            
1 23546U 95017B   25328.62154437  .00011855  00000+0  11120-2 0  9990
2 23546  69.9647  52.1519 0003022  25.6043 334.5263 14.94159813636098
ORBCOMM FM08            
1 25112U 97084A   25328.45714628  .00001837  00000+0  54539-3 0  9993
2 25112  45.0150 318.1558 0007845 328.7967  31.2418 14.46489430464573
ORBCOMM FM10            
1 25113U 97084B   25328.67018473  .00001868  00000+0  55656-3 0  9998
2 25113  45.0156 319.8056 0006883 301.4944  58.5235 14.46247680639746
ORBCOMM FM11            
1 25114U 97084C   25328.70300986  .00001977  00000+0  58988-3 0  9998
2 25114  45.0142 320.5778 0007650 302.8382  57.1733 14.45988551464704
ORBCOMM FM12            
1 25115U 97084D   25328.38689300  .00001785  00000+0  53618-3 0  9995
2 25115  45.0147 321.8297 0006773 298.4819  61.5350 14.46010307464452
ORBCOMM FM09            
1 25116U 97084E   25328.71045142  .00001730  00000+0  52265-3 0  9990
2 25116  45.0159 321.3808 0007959 292.7209  67.2801 14.45859835464704
